{
  "type": "FeatureCollection",
  "generator": "overpass-turbo",
  "copyright": "The data included in this document is from www.openstreetmap.org. The data is made available under ODbL.",
  "timestamp": "2025-11-30T19:58:01Z",
  "features": [
    {
      "type": "Feature",
      "properties": {
        "@id": "relation/3282468",
        "admin_level": "10",
        "border_type": "barangay",
        "boundary": "administrative",
        "name": "Talon Uno",
        "old_ref": "137601008",
        "population": "42677",
        "population:date": "2024-07-01",
        "ref": "1380200008",
        "type": "boundary",
        "wikidata": "Q127607808"
      },
      "geometry": {
        "type": "Polygon",
        "coordinates": [
          [
            [
              120.9931654,
              14.452809
            ],
            [
              120.9931707,
              14.4527542
            ],
            [
              120.9931721,
              14.4527285
            ],
            [
              120.9932074,
              14.452531
            ],
            [
              120.9932345,
              14.4524127
            ],
            [
              120.9933033,
              14.4522677
            ],
            [
              120.9933602,
              14.4521901
            ],
            [
              120.9935977,
              14.4518203
            ],
            [
              120.9936078,
              14.4518055
            ],
            [
              120.9939906,
              14.451174
            ],
            [
              120.9941143,
              14.4509617
            ],
            [
              120.9941463,
              14.4508848
            ],
            [
              120.9941879,
              14.4507637
            ],
            [
              120.9942023,
              14.4506109
            ],
            [
              120.9942041,
              14.4501849
            ],
            [
              120.9942065,
              14.4500993
            ],
            [
              120.994176,
              14.449207
            ],
            [
              120.9941307,
              14.4482707
            ],
            [
              120.9941277,
              14.4482487
            ],
            [
              120.9941213,
              14.4481493
            ],
            [
              120.994119,
              14.4481126
            ],
            [
              120.9941164,
              14.4480738
            ],
            [
              120.9941104,
              14.4479635
            ],
            [
              120.994104,
              14.447825
            ],
            [
              120.9940987,
              14.4477283
            ],
            [
              120.9940902,
              14.4475267
            ],
            [
              120.9940729,
              14.4471882
            ],
            [
              120.9940508,
              14.4467561
            ],
            [
              120.9940442,
              14.4466421
            ],
            [
              120.994025,
              14.4463586
            ],
            [
              120.9940199,
              14.4461817
            ],
            [
              120.9939895,
              14.4457073
            ],
            [
              120.9939824,
              14.445614
            ],
            [
              120.9939658,
              14.4453961
            ],
            [
              120.993945,
              14.4451231
            ],
            [
              120.9939341,
              14.4449794
            ],
            [
              120.9939155,
              14.4447562
            ],
            [
              120.9938924,
              14.444675
            ],
            [
              120.993867,
              14.4446259
            ],
            [
              120.9939707,
              14.4445533
            ],
            [
              120.9941326,
              14.4444517
            ],
            [
              120.9942764,
              14.4443613
            ],
            [
              120.9944241,
              14.4442648
            ],
            [
              120.9945412,
              14.4441913
            ],
            [
              120.9951318,
              14.443818
            ],
            [
              120.9956151,
              14.4435086
            ],
            [
              120.9957869,
              14.4433944
            ],
            [
              120.9958435,
              14.4433616
            ],
            [
              120.9961036,
              14.4431927
            ],
            [
              120.9962377,
              14.4431091
            ],
            [
              120.9963312,
              14.4430507
            ],
            [
              120.9964008,
              14.4430063
            ],
            [
              120.9964887,
              14.44295
            ],
            [
              120.9965782,
              14.4428911
            ],
            [
              120.9967603,
              14.4427638
            ],
            [
              120.9967959,
              14.4427402
            ],
            [
              120.9968909,
              14.4426664
            ],
            [
              120.9969941,
              14.4425853
            ],
            [
              120.9971989,
              14.4424283
            ],
            [
              120.9973396,
              14.442312
            ],
            [
              120.9974092,
              14.4422491
            ],
            [
              120.9974924,
              14.442182
            ],
            [
              120.9975531,
              14.4421389
            ],
            [
              120.9978106,
              14.4419313
            ],
            [
              120.9980652,
              14.4417371
            ],
            [
              120.99819,
              14.4416425
            ],
            [
              120.9983346,
              14.4415494
            ],
            [
              120.9983781,
              14.4415234
            ],
            [
              120.9984241,
              14.441496
            ],
            [
              120.9984885,
              14.4414574
            ],
            [
              120.9985692,
              14.4414113
            ],
            [
              120.9986957,
              14.4413394
            ],
            [
              120.9986371,
              14.4413392
            ],
            [
              120.998604,
              14.4412897
            ],
            [
              120.998371,
              14.4410902
            ],
            [
              120.9982414,
              14.4409847
            ],
            [
              120.9981648,
              14.4408982
            ],
            [
              120.9981269,
              14.4408223
            ],
            [
              120.9981242,
              14.4407555
            ],
            [
              120.9981975,
              14.4405552
            ],
            [
              120.9983873,
              14.4403601
            ],
            [
              120.9985421,
              14.4402676
            ],
            [
              120.9986766,
              14.4402213
            ],
            [
              120.9989082,
              14.4401549
            ],
            [
              120.99908,
              14.4401133
            ],
            [
              120.9993117,
              14.4400219
            ],
            [
              120.999509,
              14.4398639
            ],
            [
              120.9996636,
              14.4397809
            ],
            [
              120.999801,
              14.4397061
            ],
            [
              120.9998782,
              14.4395731
            ],
            [
              120.9998809,
              14.4394422
            ],
            [
              120.9999763,
              14.4393874
            ],
            [
              121.0004039,
              14.4394094
            ],
            [
              121.0004226,
              14.4393239
            ],
            [
              121.0004132,
              14.4392492
            ],
            [
              121.0003779,
              14.4390198
            ],
            [
              121.0003965,
              14.4389512
            ],
            [
              121.0004253,
              14.4389135
            ],
            [
              121.0004558,
              14.4388846
            ],
            [
              121.0008309,
              14.4388749
            ],
            [
              121.0010585,
              14.4388009
            ],
            [
              121.0011445,
              14.4387741
            ],
            [
              121.0013109,
              14.4386678
            ],
            [
              121.001374,
              14.4386237
            ],
            [
              121.0015197,
              14.4384866
            ],
            [
              121.0017927,
              14.4382837
            ],
            [
              121.0021011,
              14.4380935
            ],
            [
              121.0022677,
              14.4379212
            ],
            [
              121.002556,
              14.4378442
            ],
            [
              121.002702,
              14.4377444
            ],
            [
              121.0027278,
              14.4375948
            ],
            [
              121.0027879,
              14.4374036
            ],
            [
              121.0028786,
              14.437234
            ],
            [
              121.0029779,
              14.4371378
            ],
            [
              121.0031226,
              14.4370545
            ],
            [
              121.0032988,
              14.4369255
            ],
            [
              121.0035151,
              14.4368275
            ],
            [
              121.0037234,
              14.4367885
            ],
            [
              121.0039466,
              14.4367719
            ],
            [
              121.0042726,
              14.4367968
            ],
            [
              121.004513,
              14.4366888
            ],
            [
              121.0047335,
              14.4366232
            ],
            [
              121.0049739,
              14.436611
            ],
            [
              121.0051901,
              14.4366457
            ],
            [
              121.0054229,
              14.4366722
            ],
            [
              121.0055768,
              14.4364961
            ],
            [
              121.0056626,
              14.4363672
            ],
            [
              121.0056898,
              14.4362948
            ],
            [
              121.0057217,
              14.4362056
            ],
            [
              121.0057977,
              14.4360398
            ],
            [
              121.0059792,
              14.4358699
            ],
            [
              121.0059958,
              14.4355076
            ],
            [
              121.0060469,
              14.4354744
            ],
            [
              121.006024,
              14.4354212
            ],
            [
              121.0060069,
              14.43539
            ],
            [
              121.0059302,
              14.4352359
            ],
            [
              121.0058538,
              14.4351049
            ],
            [
              121.0057548,
              14.4349042
            ],
            [
              121.0056584,
              14.4347087
            ],
            [
              121.0054928,
              14.434373
            ],
            [
              121.0054735,
              14.4343338
            ],
            [
              121.0054371,
              14.4342497
            ],
            [
              121.0053584,
              14.4340796
            ],
            [
              121.0051432,
              14.4336145
            ],
            [
              121.005098,
              14.4335168
            ],
            [
              121.0050212,
              14.4333508
            ],
            [
              121.0049719,
              14.433253
            ],
            [
              121.0049591,
              14.4332281
            ],
            [
              121.0049027,
              14.4331184
            ],
            [
              121.0048158,
              14.4329494
            ],
            [
              121.0047027,
              14.4327282
            ],
            [
              121.0046723,
              14.4326688
            ],
            [
              121.0046628,
              14.4326485
            ],
            [
              121.0045738,
              14.4324581
            ],
            [
              121.0045349,
              14.432375
            ],
            [
              121.0044924,
              14.4322841
            ],
            [
              121.0043224,
              14.4319202
            ],
            [
              121.004191,
              14.4316556
            ],
            [
              121.004176,
              14.4316255
            ],
            [
              121.0041534,
              14.4315799
            ],
            [
              121.0041348,
              14.4315411
            ],
            [
              121.0040536,
              14.4313719
            ],
            [
              121.0040233,
              14.4313087
            ],
            [
              121.0039582,
              14.4311789
            ],
            [
              121.0038561,
              14.4309755
            ],
            [
              121.0034644,
              14.4301627
            ],
            [
              121.003425,
              14.4300843
            ],
            [
              121.0033449,
              14.4299315
            ],
            [
              121.0033232,
              14.4298901
            ],
            [
              121.0032329,
              14.4297107
            ],
            [
              121.0031955,
              14.4296302
            ],
            [
              121.0030644,
              14.4293668
            ],
            [
              121.0028669,
              14.4289397
            ],
            [
              121.0028363,
              14.4288734
            ],
            [
              121.0027821,
              14.4287406
            ],
            [
              121.0027286,
              14.4286019
            ],
            [
              121.0026895,
              14.4285003
            ],
            [
              121.0026444,
              14.4283732
            ],
            [
              121.0026036,
              14.428258
            ],
            [
              121.0025766,
              14.4281674
            ],
            [
              121.0025444,
              14.4280594
            ],
            [
              121.0023516,
              14.4274019
            ],
            [
              121.0023409,
              14.4273655
            ],
            [
              121.0023108,
              14.4272601
            ],
            [
              121.0023024,
              14.4272287
            ],
            [
              121.0022478,
              14.4270254
            ],
            [
              121.0022398,
              14.4270034
            ],
            [
              121.0021881,
              14.4268463
            ],
            [
              121.0020389,
              14.4263983
            ],
            [
              121.0019831,
              14.4262746
            ],
            [
              121.0018757,
              14.4261004
            ],
            [
              121.0016944,
              14.4258827
            ],
            [
              121.0016718,
              14.4258555
            ],
            [
              121.001645,
              14.4258235
            ],
            [
              121.00161,
              14.4257819
            ],
            [
              121.001362,
              14.4255025
            ],
            [
              121.001189,
              14.4253002
            ],
            [
              121.0011041,
              14.4252163
            ],
            [
              121.0009452,
              14.4250801
            ],
            [
              121.0007144,
              14.4249303
            ],
            [
              121.0004321,
              14.4247774
            ],
            [
              120.9994425,
              14.4242843
            ],
            [
              120.9994103,
              14.4242663
            ],
            [
              120.9991889,
              14.4241425
            ],
            [
              120.9989747,
              14.4240164
            ],
            [
              120.9982863,
              14.4234011
            ],
            [
              120.9979718,
              14.4230932
            ],
            [
              120.9976254,
              14.4227837
            ],
            [
              120.9971611,
              14.4223751
            ],
            [
              120.9962591,
              14.4215816
            ],
            [
              120.9957877,
              14.421128
            ],
            [
              120.9956374,
              14.4209815
            ],
            [
              120.9953559,
              14.4206577
            ],
            [
              120.9958607,
              14.4202341
            ],
            [
              120.996019,
              14.4200626
            ],
            [
              120.9960527,
              14.4200297
            ],
            [
              120.9969556,
              14.4192417
            ],
            [
              120.997051,
              14.4191544
            ],
            [
              120.9972382,
              14.4189866
            ],
            [
              120.9972851,
              14.4189334
            ],
            [
              120.9973203,
              14.4188817
            ],
            [
              120.9973454,
              14.4188243
            ],
            [
              120.9973609,
              14.4187673
            ],
            [
              120.9973575,
              14.4187009
            ],
            [
              120.9973439,
              14.4186232
            ],
            [
              120.9973066,
              14.4185359
            ],
            [
              120.9972524,
              14.4184471
            ],
            [
              120.9971678,
              14.4183173
            ],
            [
              120.9971475,
              14.4182856
            ],
            [
              120.9969669,
              14.4180259
            ],
            [
              120.9968608,
              14.4179034
            ],
            [
              120.9967699,
              14.4178168
            ],
            [
              120.9966904,
              14.4177628
            ],
            [
              120.9965975,
              14.4177144
            ],
            [
              120.9964704,
              14.4176585
            ],
            [
              120.9964448,
              14.4176483
            ],
            [
              120.9964209,
              14.4176358
            ],
            [
              120.9965,
              14.4176057
            ],
            [
              120.9966535,
              14.4175623
            ],
            [
              120.996793,
              14.417552
            ],
            [
              120.9968627,
              14.4175143
            ],
            [
              120.9968574,
              14.4173753
            ],
            [
              120.9968895,
              14.4171987
            ],
            [
              120.9969898,
              14.4167274
            ],
            [
              120.997022,
              14.4163845
            ],
            [
              120.9970327,
              14.4161767
            ],
            [
              120.9969791,
              14.4159585
            ],
            [
              120.9969254,
              14.4158234
            ],
            [
              120.9969362,
              14.4157299
            ],
            [
              120.9970327,
              14.4156675
            ],
            [
              120.9971722,
              14.4154597
            ],
            [
              120.9972151,
              14.4153246
            ],
            [
              120.9971507,
              14.4151583
            ],
            [
              120.9971078,
              14.4149505
            ],
            [
              120.9971293,
              14.4148362
            ],
            [
              120.9972151,
              14.4146388
            ],
            [
              120.9973156,
              14.4145505
            ],
            [
              120.9975784,
              14.4144784
            ],
            [
              120.9977769,
              14.4142623
            ],
            [
              120.9979585,
              14.414244
            ],
            [
              120.9980147,
              14.4142222
            ],
            [
              120.9980678,
              14.4141745
            ],
            [
              120.9981382,
              14.4140603
            ],
            [
              120.9982739,
              14.4138166
            ],
            [
              120.9983238,
              14.4137318
            ],
            [
              120.9983915,
              14.4137228
            ],
            [
              120.9985343,
              14.413754
            ],
            [
              120.9986987,
              14.4137345
            ],
            [
              120.9989006,
              14.4137228
            ],
            [
              120.9988974,
              14.4137462
            ],
            [
              120.9988715,
              14.4139169
            ],
            [
              120.9989093,
              14.4141307
            ],
            [
              120.9990166,
              14.41427
            ],
            [
              120.9990766,
              14.4143319
            ],
            [
              120.9990645,
              14.4143999
            ],
            [
              120.9990538,
              14.4145104
            ],
            [
              120.9990471,
              14.4145868
            ],
            [
              120.9989631,
              14.4151776
            ],
            [
              120.999379,
              14.4152751
            ],
            [
              120.9994657,
              14.4153067
            ],
            [
              120.9995816,
              14.4153327
            ],
            [
              120.9998927,
              14.4154202
            ],
            [
              121.0011811,
              14.4157317
            ],
            [
              121.0011658,
              14.4166391
            ],
            [
              121.0011656,
              14.4167096
            ],
            [
              121.0017693,
              14.4167299
            ],
            [
              121.0017469,
              14.4169425
            ],
            [
              121.0013871,
              14.4182264
            ],
            [
              121.002323,
              14.4185075
            ],
            [
              121.003418,
              14.4177748
            ],
            [
              121.0044631,
              14.4170774
            ],
            [
              121.0045159,
              14.4172058
            ],
            [
              121.0045853,
              14.4173748
            ],
            [
              121.0046317,
              14.4174876
            ],
            [
              121.0046953,
              14.4176425
            ],
            [
              121.0047506,
              14.4177771
            ],
            [
              121.0047875,
              14.4178667
            ],
            [
              121.0048935,
              14.4181247
            ],
            [
              121.0045485,
              14.4183828
            ],
            [
              121.0041529,
              14.4188555
            ],
            [
              121.0032599,
              14.4193304
            ],
            [
              121.0032597,
              14.4202357
            ],
            [
              121.0032395,
              14.4203333
            ],
            [
              121.0031566,
              14.4205204
            ],
            [
              121.0031792,
              14.4205211
            ],
            [
              121.0032711,
              14.4217342
            ],
            [
              121.0032755,
              14.4227535
            ],
            [
              121.0032783,
              14.4228216
            ],
            [
              121.0032982,
              14.4233788
            ],
            [
              121.0032959,
              14.4240139
            ],
            [
              121.0032422,
              14.4242751
            ],
            [
              121.0038169,
              14.4242647
            ],
            [
              121.0048295,
              14.424319
            ],
            [
              121.0047808,
              14.4254206
            ],
            [
              121.0047789,
              14.425542
            ],
            [
              121.0046498,
              14.4255428
            ],
            [
              121.0045348,
              14.4255432
            ],
            [
              121.0044183,
              14.4255438
            ],
            [
              121.004302,
              14.4255445
            ],
            [
              121.0041905,
              14.4255451
            ],
            [
              121.0040746,
              14.4255452
            ],
            [
              121.0039609,
              14.4255456
            ],
            [
              121.0038479,
              14.4255461
            ],
            [
              121.0037343,
              14.4255466
            ],
            [
              121.0036216,
              14.425547
            ],
            [
              121.0035036,
              14.4255475
            ],
            [
              121.0032409,
              14.4255489
            ],
            [
              121.0031947,
              14.4257662
            ],
            [
              121.0031706,
              14.4258666
            ],
            [
              121.0031477,
              14.4259647
            ],
            [
              121.0031245,
              14.4260705
            ],
            [
              121.0031013,
              14.4261774
            ],
            [
              121.0030783,
              14.4262837
            ],
            [
              121.0030612,
              14.4263541
            ],
            [
              121.0030803,
              14.4266101
            ],
            [
              121.0033578,
              14.4265507
            ],
            [
              121.0034735,
              14.4265248
            ],
            [
              121.0035857,
              14.4265005
            ],
            [
              121.0037001,
              14.4264756
            ],
            [
              121.0038107,
              14.4264528
            ],
            [
              121.0039252,
              14.4264432
            ],
            [
              121.0040343,
              14.426434
            ],
            [
              121.0041479,
              14.4264244
            ],
            [
              121.0042593,
              14.4264149
            ],
            [
              121.0043716,
              14.4264054
            ],
            [
              121.0044785,
              14.4263963
            ],
            [
              121.0045902,
              14.4263869
            ],
            [
              121.0047053,
              14.4263771
            ],
            [
              121.0048128,
              14.426368
            ],
            [
              121.004885,
              14.4263619
            ],
            [
              121.0049239,
              14.4263586
            ],
            [
              121.0051038,
              14.4263433
            ],
            [
              121.0051163,
              14.4264723
            ],
            [
              121.0051851,
              14.426478
            ],
            [
              121.0053452,
              14.4264913
            ],
            [
              121.0054501,
              14.4264999
            ],
            [
              121.0055522,
              14.4265084
            ],
            [
              121.0056605,
              14.4265174
            ],
            [
              121.0057731,
              14.4265267
            ],
            [
              121.0058854,
              14.426536
            ],
            [
              121.0060523,
              14.4265498
            ],
            [
              121.006139,
              14.426557
            ],
            [
              121.0061621,
              14.4265604
            ],
            [
              121.0061866,
              14.4265708
            ],
            [
              121.0063129,
              14.4266245
            ],
            [
              121.0064496,
              14.4266826
            ],
            [
              121.0066009,
              14.4267469
            ],
            [
              121.006753,
              14.4268116
            ],
            [
              121.0067972,
              14.4268304
            ],
            [
              121.0068272,
              14.4269076
            ],
            [
              121.0068363,
              14.4269316
            ],
            [
              121.006878,
              14.4270414
            ],
            [
              121.0068872,
              14.4270649
            ],
            [
              121.0068952,
              14.4270853
            ],
            [
              121.0069094,
              14.4271218
            ],
            [
              121.0069271,
              14.4271672
            ],
            [
              121.0069337,
              14.4271837
            ],
            [
              121.006946,
              14.4272148
            ],
            [
              121.0069564,
              14.4272402
            ],
            [
              121.0069911,
              14.4273294
            ],
            [
              121.00703,
              14.4274297
            ],
            [
              121.007084,
              14.4275687
            ],
            [
              121.0071164,
              14.4276479
            ],
            [
              121.0072305,
              14.4279439
            ],
            [
              121.0072202,
              14.4279914
            ],
            [
              121.0070061,
              14.4283117
            ],
            [
              121.0070527,
              14.4285006
            ],
            [
              121.0070429,
              14.4288364
            ],
            [
              121.0070414,
              14.4288902
            ],
            [
              121.0071057,
              14.4291288
            ],
            [
              121.0069361,
              14.4293772
            ],
            [
              121.006404,
              14.4299418
            ],
            [
              121.0066096,
              14.4302272
            ],
            [
              121.0066308,
              14.4304386
            ],
            [
              121.0067283,
              14.4307487
            ],
            [
              121.0067071,
              14.4312886
            ],
            [
              121.0066742,
              14.4313247
            ],
            [
              121.0065983,
              14.4314498
            ],
            [
              121.0064321,
              14.4317177
            ],
            [
              121.0063417,
              14.4319637
            ],
            [
              121.0063336,
              14.4320469
            ],
            [
              121.0063435,
              14.4321009
            ],
            [
              121.006437,
              14.4321343
            ],
            [
              121.0065907,
              14.4320927
            ],
            [
              121.0066702,
              14.4321424
            ],
            [
              121.0066756,
              14.4322206
            ],
            [
              121.0066525,
              14.4324212
            ],
            [
              121.0066331,
              14.4325577
            ],
            [
              121.0066503,
              14.4326824
            ],
            [
              121.0067361,
              14.432699
            ],
            [
              121.0068648,
              14.432699
            ],
            [
              121.0070537,
              14.4326573
            ],
            [
              121.0073283,
              14.4326159
            ],
            [
              121.0075798,
              14.4326081
            ],
            [
              121.0076926,
              14.4326464
            ],
            [
              121.0077413,
              14.432724
            ],
            [
              121.007751,
              14.4328304
            ],
            [
              121.0077124,
              14.4329302
            ],
            [
              121.007647,
              14.4330248
            ],
            [
              121.0075687,
              14.4331202
            ],
            [
              121.0075567,
              14.4332174
            ],
            [
              121.0075622,
              14.4332943
            ],
            [
              121.0076244,
              14.4334527
            ],
            [
              121.0076378,
              14.4335869
            ],
            [
              121.0077444,
              14.4338568
            ],
            [
              121.0077685,
              14.4340399
            ],
            [
              121.0082412,
              14.4347322
            ],
            [
              121.008932,
              14.4357819
            ],
            [
              121.0096741,
              14.4363549
            ],
            [
              121.0098671,
              14.4364813
            ],
            [
              121.0100283,
              14.4366089
            ],
            [
              121.0102308,
              14.4367706
            ],
            [
              121.0105412,
              14.4370219
            ],
            [
              121.010904,
              14.4373089
            ],
            [
              121.0107413,
              14.4375957
            ],
            [
              121.0103369,
              14.4373084
            ],
            [
              121.010212,
              14.4374686
            ],
            [
              121.0099957,
              14.4371972
            ],
            [
              121.0092705,
              14.4377713
            ],
            [
              121.0088307,
              14.4379713
            ],
            [
              121.0086161,
              14.4381557
            ],
            [
              121.0078329,
              14.4387791
            ],
            [
              121.0089621,
              14.4407142
            ],
            [
              121.0087019,
              14.4408363
            ],
            [
              121.0077122,
              14.4414675
            ],
            [
              121.0077988,
              14.4415835
            ],
            [
              121.0069515,
              14.4422274
            ],
            [
              121.0048197,
              14.4400623
            ],
            [
              121.0047837,
              14.4400091
            ],
            [
              121.0031621,
              14.4407346
            ],
            [
              121.00309,
              14.4405546
            ],
            [
              121.0023522,
              14.4409642
            ],
            [
              121.0008114,
              14.4418773
            ],
            [
              121.0008111,
              14.4418726
            ],
            [
              121.0008074,
              14.4418046
            ],
            [
              121.000793,
              14.4416012
            ],
            [
              121.0007837,
              14.4414403
            ],
            [
              121.0007384,
              14.4414805
            ],
            [
              120.9993182,
              14.4427766
            ],
            [
              120.9992816,
              14.4428059
            ],
            [
              120.9992932,
              14.442831
            ],
            [
              120.9993242,
              14.442863
            ],
            [
              120.9993628,
              14.4428803
            ],
            [
              120.999469,
              14.4429237
            ],
            [
              120.9995643,
              14.4429701
            ],
            [
              120.9996052,
              14.4430117
            ],
            [
              120.9996512,
              14.4430688
            ],
            [
              120.9997156,
              14.4432111
            ],
            [
              120.9997181,
              14.4432705
            ],
            [
              120.999689,
              14.443326
            ],
            [
              120.9996243,
              14.443374
            ],
            [
              120.9995601,
              14.4434221
            ],
            [
              120.9995415,
              14.4434532
            ],
            [
              120.9995328,
              14.4434915
            ],
            [
              120.9995388,
              14.4435221
            ],
            [
              120.9995695,
              14.443599
            ],
            [
              120.999752,
              14.4440256
            ],
            [
              120.9998721,
              14.4443332
            ],
            [
              120.9999322,
              14.4445493
            ],
            [
              120.9999923,
              14.4448153
            ],
            [
              121.000061,
              14.4450147
            ],
            [
              121.0000353,
              14.4451476
            ],
            [
              120.9999923,
              14.4452308
            ],
            [
              120.9998636,
              14.4452973
            ],
            [
              120.9996489,
              14.4453305
            ],
            [
              120.9994173,
              14.4453888
            ],
            [
              120.9992971,
              14.4454718
            ],
            [
              120.9992283,
              14.4455966
            ],
            [
              120.9991941,
              14.4457212
            ],
            [
              120.9991855,
              14.4458624
            ],
            [
              120.9991083,
              14.4460453
            ],
            [
              120.9990053,
              14.4461285
            ],
            [
              120.9987821,
              14.4461451
            ],
            [
              120.998554,
              14.446197
            ],
            [
              120.9985366,
              14.4461596
            ],
            [
              120.998327,
              14.4457073
            ],
            [
              120.9980482,
              14.4449712
            ],
            [
              120.9980479,
              14.4449615
            ],
            [
              120.9980199,
              14.4448902
            ],
            [
              120.9980149,
              14.4448766
            ],
            [
              120.9979877,
              14.4448069
            ],
            [
              120.9978421,
              14.4444488
            ],
            [
              120.9972928,
              14.444615
            ],
            [
              120.9970106,
              14.4447039
            ],
            [
              120.997041,
              14.4448869
            ],
            [
              120.9971269,
              14.445141
            ],
            [
              120.997252,
              14.4453123
            ],
            [
              120.9971938,
              14.4455142
            ],
            [
              120.9974115,
              14.4457656
            ],
            [
              120.9975674,
              14.4460114
            ],
            [
              120.9977391,
              14.4462774
            ],
            [
              120.9978067,
              14.4464042
            ],
            [
              120.997814,
              14.446418
            ],
            [
              120.9976157,
              14.4464821
            ],
            [
              120.9973803,
              14.4466003
            ],
            [
              120.9972981,
              14.4467232
            ],
            [
              120.9972856,
              14.4467721
            ],
            [
              120.997294,
              14.4467991
            ],
            [
              120.9973171,
              14.4468767
            ],
            [
              120.9974059,
              14.446908
            ],
            [
              120.9975051,
              14.4469495
            ],
            [
              120.9975747,
              14.4470031
            ],
            [
              120.9976024,
              14.4470881
            ],
            [
              120.9975928,
              14.4471629
            ],
            [
              120.997466,
              14.4472782
            ],
            [
              120.9973296,
              14.4473854
            ],
            [
              120.9971256,
              14.447741
            ],
            [
              120.9970827,
              14.4479155
            ],
            [
              120.9971256,
              14.4480153
            ],
            [
              120.9972028,
              14.4481732
            ],
            [
              120.9973058,
              14.4482479
            ],
            [
              120.997426,
              14.448381
            ],
            [
              120.9974774,
              14.4484724
            ],
            [
              120.9974346,
              14.4485887
            ],
            [
              120.9973745,
              14.4486551
            ],
            [
              120.9972371,
              14.4488215
            ],
            [
              120.9971342,
              14.4489876
            ],
            [
              120.9970998,
              14.4490791
            ],
            [
              120.9971342,
              14.4491456
            ],
            [
              120.9972028,
              14.4491788
            ],
            [
              120.9973449,
              14.4491778
            ],
            [
              120.9974736,
              14.4492092
            ],
            [
              120.9975166,
              14.4492838
            ],
            [
              120.9975375,
              14.4493201
            ],
            [
              120.997529,
              14.4494282
            ],
            [
              120.9974432,
              14.4495113
            ],
            [
              120.9973058,
              14.4495945
            ],
            [
              120.9971342,
              14.449769
            ],
            [
              120.9970226,
              14.4499102
            ],
            [
              120.9969796,
              14.4501098
            ],
            [
              120.9969969,
              14.4502427
            ],
            [
              120.9970741,
              14.4503841
            ],
            [
              120.9970054,
              14.4505337
            ],
            [
              120.9968509,
              14.4506001
            ],
            [
              120.9966449,
              14.4506333
            ],
            [
              120.9964561,
              14.4507414
            ],
            [
              120.9962158,
              14.4508495
            ],
            [
              120.9960098,
              14.4509409
            ],
            [
              120.995941,
              14.4510739
            ],
            [
              120.9959497,
              14.4512318
            ],
            [
              120.9959866,
              14.4514006
            ],
            [
              120.9959246,
              14.4515305
            ],
            [
              120.9957719,
              14.4515656
            ],
            [
              120.9955163,
              14.451614
            ],
            [
              120.9951925,
              14.4515992
            ],
            [
              120.9949795,
              14.4516034
            ],
            [
              120.9948339,
              14.4516225
            ],
            [
              120.9947138,
              14.4517056
            ],
            [
              120.9946879,
              14.4517887
            ],
            [
              120.9947653,
              14.4518967
            ],
            [
              120.994748,
              14.4520297
            ],
            [
              120.9947138,
              14.4520962
            ],
            [
              120.9946022,
              14.4521461
            ],
            [
              120.9944305,
              14.452196
            ],
            [
              120.9941387,
              14.4523122
            ],
            [
              120.9939696,
              14.4523978
            ],
            [
              120.9938039,
              14.4524342
            ],
            [
              120.9936065,
              14.4524453
            ],
            [
              120.9934348,
              14.4525866
            ],
            [
              120.9933765,
              14.4526961
            ],
            [
              120.9932943,
              14.4527701
            ],
            [
              120.9932037,
              14.4528045
            ],
            [
              120.9931654,
              14.452809
            ]
          ]
        ]
      },
      "id": "relation/3282468"
    },
    {
      "type": "Feature",
      "properties": {
        "@id": "node/3732652927",
        "@relations": [
          {
            "role": "label",
            "rel": 3282468,
            "reltags": {
              "admin_level": "10",
              "border_type": "barangay",
              "boundary": "administrative",
              "name": "Talon Uno",
              "old_ref": "137601008",
              "population": "42677",
              "population:date": "2024-07-01",
              "ref": "1380200008",
              "type": "boundary",
              "wikidata": "Q127607808"
            }
          }
        ]
      },
      "geometry": {
        "type": "Point",
        "coordinates": [
          121.0027127,
          14.4389761
        ]
      },
      "id": "node/3732652927"
    }
  ]
}